PLEIADES NEO 3          
1 48268U 21034A   26194.32066934  .00000722  00000+0  98372-4 0  9996
2 48268  97.8945 268.7113 0001401  95.5587 264.5786 14.81680857281529
PLEIADES NEO 4          
1 49070U 21073E   26193.88170894 -.00000008  00000+0  56107-5 0  9991
2 49070  97.8940 268.2748 0001315  92.3250 267.8113 14.81673277265172
